[{"OBJECT_NAME":"STARLINK-31684","OBJECT_ID":"2024-071J","EPOCH":"2026-03-08T19:31:52.154976","MEAN_MOTION":15.27581574,"ECCENTRICITY":6.373e-5,"INCLINATION":42.998,"RA_OF_ASC_NODE":352.3031,"ARG_OF_PERICENTER":257.0512,"MEAN_ANOMALY":103.0268,"EPHEMERIS_TYPE":0,"CLASSIFICATION_TYPE":"U","NORAD_CAT_ID":59492,"ELEMENT_SET_NO":999,"REV_AT_EPOCH":10798,"BSTAR":-0.00013350334,"MEAN_MOTION_DOT":-3.934e-5,"MEAN_MOTION_DDOT":0},{"OBJECT_NAME":"NOAA 17 DEB","OBJECT_ID":"2002-032AF","EPOCH":"2026-03-09T00:24:06.552000","MEAN_MOTION":15.25501717,"ECCENTRICITY":0.00030847,"INCLINATION":98.6472,"RA_OF_ASC_NODE":92.5947,"ARG_OF_PERICENTER":165.9893,"MEAN_ANOMALY":194.1428,"EPHEMERIS_TYPE":0,"CLASSIFICATION_TYPE":"U","NORAD_CAT_ID":48614,"ELEMENT_SET_NO":999,"REV_AT_EPOCH":26420,"BSTAR":0.01090047,"MEAN_MOTION_DOT":0.00286783,"MEAN_MOTION_DDOT":0}]
